{"fetched_at":"2026-07-12T17:32:50.781Z","source":"https://celestrak.org/NORAD/elements/gp.php?NAME=JILIN&FORMAT=JSON","constellation":"jilin-1-kuanfu","records":[{"OBJECT_NAME":"JILIN-1 KUANFU 01","OBJECT_ID":"2020-003A","EPOCH":"2026-07-12T10:53:30.199200","CLASSIFICATION_TYPE":"U","MEAN_MOTION":15.1085798,"ECCENTRICITY":0.0009029,"INCLINATION":97.5021,"RA_OF_ASC_NODE":266.9168,"ARG_OF_PERICENTER":207.0251,"MEAN_ANOMALY":153.051,"EPHEMERIS_TYPE":0,"NORAD_CAT_ID":45016,"ELEMENT_SET_NO":999,"REV_AT_EPOCH":35914,"BSTAR":0.000093973,"MEAN_MOTION_DOT":0.00001501,"MEAN_MOTION_DDOT":0},{"OBJECT_NAME":"JILIN-1 KUANFU-01B","OBJECT_ID":"2021-061A","EPOCH":"2026-07-12T11:46:31.139616","CLASSIFICATION_TYPE":"U","MEAN_MOTION":15.09800318,"ECCENTRICITY":0.0006317,"INCLINATION":97.5202,"RA_OF_ASC_NODE":269.2145,"ARG_OF_PERICENTER":346.5335,"MEAN_ANOMALY":13.5725,"EPHEMERIS_TYPE":0,"NORAD_CAT_ID":49003,"ELEMENT_SET_NO":999,"REV_AT_EPOCH":27716,"BSTAR":0.00014052,"MEAN_MOTION_DOT":0.00002208,"MEAN_MOTION_DDOT":0},{"OBJECT_NAME":"JILIN-1 KUANFU 01C","OBJECT_ID":"2022-048A","EPOCH":"2026-07-12T11:34:16.870080","CLASSIFICATION_TYPE":"U","MEAN_MOTION":15.09591453,"ECCENTRICITY":0.0017126,"INCLINATION":97.5251,"RA_OF_ASC_NODE":270.195,"ARG_OF_PERICENTER":229.9981,"MEAN_ANOMALY":129.9746,"EPHEMERIS_TYPE":0,"NORAD_CAT_ID":52443,"ELEMENT_SET_NO":999,"REV_AT_EPOCH":23101,"BSTAR":0.00010916,"MEAN_MOTION_DOT":0.00001695,"MEAN_MOTION_DDOT":0},{"OBJECT_NAME":"JILIN-1 KUANFU 02A","OBJECT_ID":"2023-127A","EPOCH":"2026-07-12T12:05:12.105312","CLASSIFICATION_TYPE":"U","MEAN_MOTION":15.10799253,"ECCENTRICITY":0.0010097,"INCLINATION":97.557,"RA_OF_ASC_NODE":287.0022,"ARG_OF_PERICENTER":247.0797,"MEAN_ANOMALY":112.9367,"EPHEMERIS_TYPE":0,"NORAD_CAT_ID":57696,"ELEMENT_SET_NO":999,"REV_AT_EPOCH":15945,"BSTAR":0.00012334,"MEAN_MOTION_DOT":0.00001986,"MEAN_MOTION_DDOT":0},{"OBJECT_NAME":"JILIN-01 KUANFU 02B 1","OBJECT_ID":"2024-169A","EPOCH":"2026-07-12T12:20:29.531616","CLASSIFICATION_TYPE":"U","MEAN_MOTION":15.09048595,"ECCENTRICITY":0.000171,"INCLINATION":97.5581,"RA_OF_ASC_NODE":282.6472,"ARG_OF_PERICENTER":356.3717,"MEAN_ANOMALY":3.7499,"EPHEMERIS_TYPE":0,"NORAD_CAT_ID":61189,"ELEMENT_SET_NO":999,"REV_AT_EPOCH":9964,"BSTAR":0.00013648,"MEAN_MOTION_DOT":0.00002097,"MEAN_MOTION_DDOT":0},{"OBJECT_NAME":"JILIN-01 KUANFU 02B 2","OBJECT_ID":"2024-169B","EPOCH":"2026-07-12T13:26:31.716384","CLASSIFICATION_TYPE":"U","MEAN_MOTION":15.09009035,"ECCENTRICITY":0.0004781,"INCLINATION":97.5571,"RA_OF_ASC_NODE":282.0775,"ARG_OF_PERICENTER":291.3263,"MEAN_ANOMALY":68.7455,"EPHEMERIS_TYPE":0,"NORAD_CAT_ID":61190,"ELEMENT_SET_NO":999,"REV_AT_EPOCH":9965,"BSTAR":0.000099491,"MEAN_MOTION_DOT":0.0000151,"MEAN_MOTION_DDOT":0},{"OBJECT_NAME":"JILIN-01 KUANFU 02B 3","OBJECT_ID":"2024-169C","EPOCH":"2026-07-12T12:04:01.119936","CLASSIFICATION_TYPE":"U","MEAN_MOTION":15.09046904,"ECCENTRICITY":0.0012833,"INCLINATION":97.5566,"RA_OF_ASC_NODE":282.4541,"ARG_OF_PERICENTER":215.5759,"MEAN_ANOMALY":144.4615,"EPHEMERIS_TYPE":0,"NORAD_CAT_ID":61191,"ELEMENT_SET_NO":999,"REV_AT_EPOCH":9964,"BSTAR":0.00011939,"MEAN_MOTION_DOT":0.00001829,"MEAN_MOTION_DDOT":0},{"OBJECT_NAME":"JILIN-01 KUANFU 02B 4","OBJECT_ID":"2024-169D","EPOCH":"2026-07-12T12:54:30.222720","CLASSIFICATION_TYPE":"U","MEAN_MOTION":15.09029997,"ECCENTRICITY":0.0013771,"INCLINATION":97.5531,"RA_OF_ASC_NODE":282.016,"ARG_OF_PERICENTER":172.7676,"MEAN_ANOMALY":187.3754,"EPHEMERIS_TYPE":0,"NORAD_CAT_ID":61192,"ELEMENT_SET_NO":999,"REV_AT_EPOCH":9965,"BSTAR":0.00016341,"MEAN_MOTION_DOT":0.00002527,"MEAN_MOTION_DDOT":0},{"OBJECT_NAME":"JILIN-01 KUANFU 02B 5","OBJECT_ID":"2024-169E","EPOCH":"2026-07-12T12:35:54.953376","CLASSIFICATION_TYPE":"U","MEAN_MOTION":15.09065477,"ECCENTRICITY":0.001297,"INCLINATION":97.5581,"RA_OF_ASC_NODE":282.7985,"ARG_OF_PERICENTER":196.6421,"MEAN_ANOMALY":163.4384,"EPHEMERIS_TYPE":0,"NORAD_CAT_ID":61193,"ELEMENT_SET_NO":999,"REV_AT_EPOCH":9965,"BSTAR":0.00016546,"MEAN_MOTION_DOT":0.00002561,"MEAN_MOTION_DDOT":0},{"OBJECT_NAME":"JILIN-01 KUANFU 02B 6","OBJECT_ID":"2024-169F","EPOCH":"2026-07-12T13:09:50.224608","CLASSIFICATION_TYPE":"U","MEAN_MOTION":15.09022462,"ECCENTRICITY":0.0015448,"INCLINATION":97.5558,"RA_OF_ASC_NODE":282.715,"ARG_OF_PERICENTER":230.9791,"MEAN_ANOMALY":129.0063,"EPHEMERIS_TYPE":0,"NORAD_CAT_ID":61194,"ELEMENT_SET_NO":999,"REV_AT_EPOCH":9966,"BSTAR":0.0001135,"MEAN_MOTION_DOT":0.00001736,"MEAN_MOTION_DDOT":0}]}
