JILIN-1 KUANFU 01       
1 45016U 20003A   26193.45382175  .00001501  00000+0  93973-4 0  9998
2 45016  97.5021 266.9168 0009029 207.0251 153.0510 15.10857980359148
JILIN-1 KUANFU-01B      
1 49003U 21061A   26193.49063819  .00002208  00000+0  14052-3 0  9993
2 49003  97.5202 269.2145 0006317 346.5335  13.5725 15.09800318277169
JILIN-1 KUANFU 01C      
1 52443U 22048A   26193.48213970  .00001695  00000+0  10916-3 0  9999
2 52443  97.5251 270.1950 0017126 229.9981 129.9746 15.09591453231017
JILIN-1 KUANFU 02A      
1 57696U 23127A   26193.50361233  .00001986  00000+0  12334-3 0  9991
2 57696  97.5570 287.0022 0010097 247.0797 112.9367 15.10799253159457
JILIN-01 KUANFU 02B 1   
1 61189U 24169A   26193.51423069  .00002097  00000+0  13648-3 0  9990
2 61189  97.5581 282.6472 0001710 356.3717   3.7499 15.09048595 99640
JILIN-01 KUANFU 02B 2   
1 61190U 24169B   26193.56008931  .00001510  00000+0  99491-4 0  9994
2 61190  97.5571 282.0775 0004781 291.3263  68.7455 15.09009035 99656
JILIN-01 KUANFU 02B 3   
1 61191U 24169C   26193.50279074  .00001829  00000+0  11939-3 0  9990
2 61191  97.5566 282.4541 0012833 215.5759 144.4615 15.09046904 99646
JILIN-01 KUANFU 02B 4   
1 61192U 24169D   26193.53784980  .00002527  00000+0  16341-3 0  9999
2 61192  97.5531 282.0160 0013771 172.7676 187.3754 15.09029997 99650
JILIN-01 KUANFU 02B 5   
1 61193U 24169E   26193.52494159  .00002561  00000+0  16546-3 0  9990
2 61193  97.5581 282.7985 0012970 196.6421 163.4384 15.09065477 99658
JILIN-01 KUANFU 02B 6   
1 61194U 24169F   26193.54849797  .00001736  00000+0  11350-3 0  9996
2 61194  97.5558 282.7150 0015448 230.9791 129.0063 15.09022462 99662
